NORAD_CAT_ID,OBJECT_NAME,OBJECT_TYPE,EPOCH,MEAN_MOTION,ECCENTRICITY,INCLINATION,RA_OF_ASC_NODE,ARG_OF_PERICENTER,MEAN_ANOMALY,BSTAR,MEAN_MOTION_DOT,MEAN_MOTION_DDOT,TLE_LINE0,TLE_LINE1,TLE_LINE2,SEMIMAJOR_AXIS,PERIOD,APOGEE,PERIGEE,DECAYED
55923.0,STARLINK-5854,PAYLOAD,2023-10-07 16:44:11,14.98306304,0.000294,70.0002,13.3209,269.1439,90.9383,-0.00015775,-1.974e-05,0.0,0 STARLINK-5854,1 55923U 23037K   23280.69735663 -.00001974  00000-0 -15775-3 0  9990,2 55923  70.0002  13.3209 0002940 269.1439  90.9383 14.98306304 31073,6950.266,96.109,574.175,570.088,0.0
55923.0,STARLINK-5854,PAYLOAD,2023-10-07 23:08:42,14.98325531,0.0003066,69.9999,12.6467,271.1583,88.9225,-7.432e-05,-9.8e-06,0.0,0 STARLINK-5854,1 55923U 23037K   23280.96438404 -.00000980  00000-0 -74320-4 0  9991,2 55923  69.9999  12.6467 0003066 271.1583  88.9225 14.98325531 31453,6950.207,96.107,574.203,569.941,0.0
55923.0,STARLINK-5854,PAYLOAD,2023-10-08 10:21:38,14.98336345,0.0002609,70.001,11.4695,269.1343,90.9518,0.00020815,2.392e-05,0.0,0 STARLINK-5854,1 55923U 23037K   23281.43169219  .00002392  00000-0  20815-3 0  9995,2 55923  70.0010  11.4695 0002609 269.1343  90.9518 14.98336345 31524,6950.173,96.107,573.852,570.225,0.0
55923.0,STARLINK-5854,PAYLOAD,2023-10-08 13:33:54,14.98338627,0.0002421,70.0011,11.1327,264.3126,95.7757,0.00025583,2.961e-05,0.0,0 STARLINK-5854,1 55923U 23037K   23281.56520932  .00002961  00000-0  25583-3 0  9991,2 55923  70.0011  11.1327 0002421 264.3126  95.7757 14.98338627 31200,6950.166,96.106,573.714,570.349,0.0
55923.0,STARLINK-5854,PAYLOAD,2023-10-08 15:10:02,14.98339902,0.0002425,70.0012,10.9644,266.2288,93.8593,0.00027308,3.168e-05,0.0,0 STARLINK-5854,1 55923U 23037K   23281.63196787  .00003168  00000-0  27308-3 0  9993,2 55923  70.0012  10.9644 0002425 266.2288  93.8593 14.98339902 31219,6950.162,96.106,573.713,570.342,0.0
55923.0,STARLINK-5854,PAYLOAD,2023-10-08 23:10:41,14.98348623,0.0002935,70.001,10.1214,272.4908,87.5915,0.00013077,1.468e-05,0.0,0 STARLINK-5854,1 55923U 23037K   23281.96576250  .00001468  00000-0  13077-3 0  9995,2 55923  70.0010  10.1214 0002935 272.4908  87.5915 14.98348623 31607,6950.135,96.106,574.04,569.96,0.0
55923.0,STARLINK-5854,PAYLOAD,2023-10-09 08:47:31,14.98325252,0.0002719,70.001,9.1136,266.8249,93.2599,0.00028078,3.258e-05,0.0,0 STARLINK-5854,1 55923U 23037K   23282.36633390  .00003258  00000-0  28078-3 0  9995,2 55923  70.0010   9.1136 0002719 266.8249  93.2599 14.98325252 31664,6950.208,96.107,573.962,570.183,0.0
55923.0,STARLINK-5854,PAYLOAD,2023-10-09 13:35:55,14.98330671,0.0002607,70.0007,8.6083,267.1384,92.9477,0.00033221,3.873e-05,0.0,0 STARLINK-5854,1 55923U 23037K   23282.56660890  .00003873  00000-0  33221-3 0  9991,2 55923  70.0007   8.6083 0002607 267.1384  92.9477 14.98330671 31353,6950.191,96.107,573.868,570.244,0.0
55923.0,STARLINK-5854,PAYLOAD,2023-10-09 16:48:10,14.9833349,0.000257,70.0007,8.2692,266.3372,93.7493,0.00036407,4.254e-05,0.0,0 STARLINK-5854,1 55923U 23037K   23282.70012533  .00004254  00000-0  36407-3 0  9995,2 55923  70.0007   8.2692 0002570 266.3372  93.7493 14.98333490 31711,6950.182,96.107,573.833,570.261,0.0
55923.0,STARLINK-5854,PAYLOAD,2023-10-10 13:37:55,14.98350867,0.0002658,70.0008,6.0802,262.4167,97.669,-0.00014379,-1.809e-05,0.0,0 STARLINK-5854,1 55923U 23037K   23283.56800166 -.00001809  00000-0 -14379-3 0  9996,2 55923  70.0008   6.0802 0002658 262.4167  97.6690 14.98350867 31503,6950.128,96.106,573.841,570.146,0.0
55923.0,STARLINK-5854,PAYLOAD,2023-10-10 15:14:03,14.98350527,0.000269,70.0006,5.9132,264.5174,95.5678,-7.0248e-05,-9.31e-06,0.0,0 STARLINK-5854,1 55923U 23037K   23283.63475922 -.00000931  00000-0 -70248-4 0  9995,2 55923  70.0006   5.9132 0002690 264.5174  95.5678 14.98350527 31519,6950.129,96.106,573.864,570.125,0.0
55923.0,STARLINK-5854,PAYLOAD,2023-10-11 10:27:40,14.98330255,0.00029,70.0006,3.8957,269.0062,91.0765,-0.00012929,-1.635e-05,0.0,0 STARLINK-5854,1 55923U 23037K   23284.43588734 -.00001635  00000-0 -12929-3 0  9993,2 55923  70.0006   3.8957 0002900 269.0062  91.0765 14.98330255 31975,6950.192,96.107,574.073,570.042,0.0
55923.0,STARLINK-5854,PAYLOAD,2023-10-11 13:39:56,14.98332344,0.0002952,70.0001,3.5573,270.6141,89.468,-0.00015035,-1.887e-05,0.0,0 STARLINK-5854,1 55923U 23037K   23284.56940632 -.00001887  00000-0 -15035-3 0  9996,2 55923  70.0001   3.5573 0002952 270.6141  89.4680 14.98332344 31657,6950.186,96.107,574.102,569.999,0.0
55923.0,STARLINK-5854,PAYLOAD,2023-10-12 10:29:41,14.98331035,0.0002812,70.0008,1.3691,266.3123,93.7715,-4.5048e-05,-6.3e-06,0.0,0 STARLINK-5854,1 55923U 23037K   23285.43728449 -.00000630  00000-0 -45048-4 0  9996,2 55923  70.0008   1.3691 0002812 266.3123  93.7715 14.98331035 32124,6950.19,96.107,574.009,570.1,0.0
55923.0,STARLINK-5854,PAYLOAD,2023-10-12 13:41:56,14.98338119,0.0002959,70.0,1.0327,269.1474,90.9346,-1.2539e-06,-1.08e-06,0.0,0 STARLINK-5854,1 55923U 23037K   23285.57079826 -.00000108  00000-0 -12539-5 0  9999,2 55923  70.0000   1.0327 0002959 269.1474  90.9346 14.98338119 31804,6950.168,96.106,574.089,569.976,0.0
55923.0,STARLINK-5854,PAYLOAD,2023-10-12 15:18:04,14.9833881,0.0002904,70.0003,0.8648,268.2819,91.8007,8.571e-06,9e-08,0.0,0 STARLINK-5854,1 55923U 23037K   23285.63755727  .00000009  00000-0  85710-5 0  9996,2 55923  70.0003   0.8648 0002904 268.2819  91.8007 14.98338810 32154,6950.166,96.106,574.049,570.012,0.0
55923.0,STARLINK-5854,PAYLOAD,2023-10-13 12:07:50,14.98336289,0.0002288,70.0012,358.6783,262.1613,97.9287,-8.7081e-05,-1.132e-05,0.0,0 STARLINK-5854,1 55923U 23037K   23286.50544139 -.00001132  00000-0 -87081-4 0  9998,2 55923  70.0012 358.6783 0002288 262.1613  97.9287 14.98336289 32287,6950.173,96.107,573.629,570.448,0.0
55923.0,STARLINK-5854,PAYLOAD,2023-10-13 13:43:57,14.98342019,0.0002303,70.0013,358.5103,261.9231,98.1666,-0.00015135,-1.899e-05,0.0,0 STARLINK-5854,1 55923U 23037K   23286.57219898 -.00001899  00000-0 -15135-3 0  9996,2 55923  70.0013 358.5103 0002303 261.9231  98.1666 14.98342019 31959,6950.156,96.106,573.621,570.42,0.0
55923.0,STARLINK-5854,PAYLOAD,2023-10-13 21:44:38,14.98328847,0.0002594,70.0016,357.6675,270.0773,90.0089,0.00010878,1.205e-05,0.0,0 STARLINK-5854,1 55923U 23037K   23286.90600098  .00001205  00000-0  10878-3 0  9997,2 55923  70.0016 357.6675 0002594 270.0773  90.0089 14.98328847 32000,6950.196,96.107,573.864,570.259,0.0
55923.0,STARLINK-5854,PAYLOAD,2023-10-14 13:45:58,14.98339447,0.0002774,70.0009,355.9829,270.2015,89.8826,8.8776e-05,9.67e-06,0.0,0 STARLINK-5854,1 55923U 23037K   23287.57359122  .00000967  00000-0  88776-4 0  9997,2 55923  70.0009 355.9829 0002774 270.2015  89.8826 14.98339447 32109,6950.164,96.106,573.957,570.101,0.0
55923.0,STARLINK-5854,PAYLOAD,2023-10-14 21:46:38,14.98378703,0.0002149,70.0028,355.1408,282.5093,77.5826,-0.0009147,-0.00011003,0.0,0 STARLINK-5854,1 55923U 23037K   23287.90738921 -.00011003  00000-0 -91470-3 0  9991,2 55923  70.0028 355.1408 0002149 282.5093  77.5826 14.98378703 32150,6950.042,96.104,573.401,570.414,0.0
55923.0,STARLINK-5854,PAYLOAD,2023-10-15 04:11:12,14.98304986,0.0001789,70.0031,354.4677,256.1366,103.9594,0.00029562,3.434e-05,0.0,0 STARLINK-5854,1 55923U 23037K   23288.17444455  .00003434  00000-0  29562-3 0  9997,2 55923  70.0031 354.4677 0001789 256.1366 103.9594 14.98304986 32533,6950.27,96.109,573.379,570.892,0.0
55923.0,STARLINK-5854,PAYLOAD,2023-10-15 13:48:01,14.98311638,0.0002473,70.0015,353.4613,254.7044,105.3841,-0.00019713,-2.443e-05,0.0,0 STARLINK-5854,1 55923U 23037K   23288.57501869 -.00002443  00000-0 -19713-3 0  9992,2 55923  70.0015 353.4613 0002473 254.7044 105.3841 14.98311638 32254,6950.25,96.108,573.833,570.396,0.0
55923.0,STARLINK-5854,PAYLOAD,2023-10-15 21:48:41,14.98324072,0.0002883,70.0003,352.6164,270.7683,89.3145,-0.00012323,-1.563e-05,0.0,0 STARLINK-5854,1 55923U 23037K   23288.90881054 -.00001563  00000-0 -12323-3 0  9998,2 55923  70.0003 352.6164 0002883 270.7683  89.3145 14.98324072 32305,6950.211,96.107,574.08,570.072,0.0
55923.0,STARLINK-5854,PAYLOAD,2023-10-16 12:13:52,14.9833506,0.0003019,69.9996,351.1012,271.6652,88.4161,-1.7871e-05,-3.06e-06,0.0,0 STARLINK-5854,1 55923U 23037K   23289.50964083 -.00000306  00000-0 -17871-4 0  9997,2 55923  69.9996 351.1012 0003019 271.6652  88.4161 14.98335060 32731,6950.177,96.107,574.141,569.944,0.0
55923.0,STARLINK-5854,PAYLOAD,2023-10-16 13:50:00,14.98336024,0.0002978,69.9997,350.9329,271.0753,89.0065,-1.3964e-05,-2.6e-06,0.0,0 STARLINK-5854,1 55923U 23037K   23289.57639997 -.00000260  00000-0 -13964-4 0  9995,2 55923  69.9997 350.9329 0002978 271.0753  89.0065 14.98336024 32404,6950.174,96.107,574.109,569.97,0.0
55923.0,STARLINK-5854,PAYLOAD,2023-10-17 12:15:53,14.98327833,0.0002858,69.9999,348.576,265.6266,94.4567,0.00024135,2.788e-05,0.0,0 STARLINK-5854,1 55923U 23037K   23290.51103901  .00002788  00000-0  24135-3 0  9998,2 55923  69.9999 348.5760 0002858 265.6266  94.4567 14.98327833 32880,6950.2,96.107,574.051,570.078,0.0
55923.0,STARLINK-5854,PAYLOAD,2023-10-18 02:41:06,14.98332643,0.0002854,70.0003,347.061,269.9868,90.0964,1.4331e-05,7.8e-07,0.0,0 STARLINK-5854,1 55923U 23037K   23291.11188313  .00000078  00000-0  14331-4 0  9993,2 55923  70.0003 347.0610 0002854 269.9868  90.0964 14.98332643 32639,6950.185,96.107,574.033,570.066,0.0
55923.0,STARLINK-5854,PAYLOAD,2023-10-18 12:17:55,14.98331884,0.0002888,69.9996,346.0513,269.3366,90.7462,-1.8025e-05,-3.08e-06,0.0,0 STARLINK-5854,1 55923U 23037K   23291.51244363 -.00000308  00000-0 -18025-4 0  9997,2 55923  69.9996 346.0513 0002888 269.3366  90.7462 14.98331884 33033,6950.187,96.107,574.059,570.045,0.0
55923.0,STARLINK-5854,PAYLOAD,2023-10-19 04:19:16,14.98321416,0.0002904,69.999,344.368,271.2225,88.8601,-0.00015193,-1.905e-05,0.0,0 STARLINK-5854,1 55923U 23037K   23292.18005603 -.00001905  00000-0 -15193-3 0  9999,2 55923  69.9990 344.3680 0002904 271.2225  88.8601 14.98321416 33132,6950.219,96.108,574.103,570.066,0.0
